[{"OBJECT_NAME":"KUIPER-00065","OBJECT_ID":"2025-134AB","EPOCH":"2026-03-03T19:32:32.445888","MEAN_MOTION":14.79260932,"ECCENTRICITY":0.0001422,"INCLINATION":51.9022,"RA_OF_ASC_NODE":266.6563,"ARG_OF_PERICENTER":210.1733,"MEAN_ANOMALY":149.9148,"EPHEMERIS_TYPE":0,"CLASSIFICATION_TYPE":"U","NORAD_CAT_ID":64525,"ELEMENT_SET_NO":999,"REV_AT_EPOCH":3908,"BSTAR":0.00064453,"MEAN_MOTION_DOT":4.619e-5,"MEAN_MOTION_DDOT":0},{"OBJECT_NAME":"KUIPER-00066","OBJECT_ID":"2025-134AC","EPOCH":"2026-03-05T15:12:52.320960","MEAN_MOTION":15.22930791,"ECCENTRICITY":0.0001813,"INCLINATION":51.8731,"RA_OF_ASC_NODE":203.1946,"ARG_OF_PERICENTER":289.2857,"MEAN_ANOMALY":70.7927,"EPHEMERIS_TYPE":0,"CLASSIFICATION_TYPE":"U","NORAD_CAT_ID":64526,"ELEMENT_SET_NO":999,"REV_AT_EPOCH":4014,"BSTAR":-0.0021323,"MEAN_MOTION_DOT":-0.0005071,"MEAN_MOTION_DDOT":0},{"OBJECT_NAME":"KUIPER-00069","OBJECT_ID":"2025-151A","EPOCH":"2026-03-05T01:18:30.379392","MEAN_MOTION":14.79930882,"ECCENTRICITY":9.381e-5,"INCLINATION":51.9039,"RA_OF_ASC_NODE":301.1237,"ARG_OF_PERICENTER":79.4711,"MEAN_ANOMALY":280.6357,"EPHEMERIS_TYPE":0,"CLASSIFICATION_TYPE":"U","NORAD_CAT_ID":64816,"ELEMENT_SET_NO":999,"REV_AT_EPOCH":3607,"BSTAR":-0.00015991963,"MEAN_MOTION_DOT":-1.44e-5,"MEAN_MOTION_DDOT":0},{"OBJECT_NAME":"KUIPER-00070","OBJECT_ID":"2025-151B","EPOCH":"2026-03-05T03:05:34.162368","MEAN_MOTION":14.79925581,"ECCENTRICITY":8.155e-5,"INCLINATION":51.9039,"RA_OF_ASC_NODE":325.7292,"ARG_OF_PERICENTER":91.7779,"MEAN_ANOMALY":268.3277,"EPHEMERIS_TYPE":0,"CLASSIFICATION_TYPE":"U","NORAD_CAT_ID":64817,"ELEMENT_SET_NO":999,"REV_AT_EPOCH":3574,"BSTAR":0.00086453112,"MEAN_MOTION_DOT":6.374e-5,"MEAN_MOTION_DDOT":0},{"OBJECT_NAME":"KUIPER-00071","OBJECT_ID":"2025-151C","EPOCH":"2026-03-05T03:08:59.351136","MEAN_MOTION":14.80034918,"ECCENTRICITY":5.658e-5,"INCLINATION":51.9021,"RA_OF_ASC_NODE":323.2371,"ARG_OF_PERICENTER":247.4406,"MEAN_ANOMALY":112.6496,"EPHEMERIS_TYPE":0,"CLASSIFICATION_TYPE":"U","NORAD_CAT_ID":64818,"ELEMENT_SET_NO":999,"REV_AT_EPOCH":3459,"BSTAR":0.00087120633,"MEAN_MOTION_DOT":6.443e-5,"MEAN_MOTION_DDOT":0},{"OBJECT_NAME":"KUIPER-00072","OBJECT_ID":"2025-151D","EPOCH":"2026-03-05T09:20:46.034016","MEAN_MOTION":14.79941596,"ECCENTRICITY":0.0001264,"INCLINATION":51.8981,"RA_OF_ASC_NODE":302.0851,"ARG_OF_PERICENTER":93.9745,"MEAN_ANOMALY":266.1362,"EPHEMERIS_TYPE":0,"CLASSIFICATION_TYPE":"U","NORAD_CAT_ID":64819,"ELEMENT_SET_NO":999,"REV_AT_EPOCH":3491,"BSTAR":-0.00040587,"MEAN_MOTION_DOT":-3.315e-5,"MEAN_MOTION_DDOT":0},{"OBJECT_NAME":"KUIPER-00073","OBJECT_ID":"2025-151E","EPOCH":"2026-03-05T10:27:01.965888","MEAN_MOTION":14.79922907,"ECCENTRICITY":0.0001064,"INCLINATION":51.9037,"RA_OF_ASC_NODE":321.8898,"ARG_OF_PERICENTER":91.8593,"MEAN_ANOMALY":268.2492,"EPHEMERIS_TYPE":0,"CLASSIFICATION_TYPE":"U","NORAD_CAT_ID":64820,"ELEMENT_SET_NO":999,"REV_AT_EPOCH":3582,"BSTAR":-0.00015217,"MEAN_MOTION_DOT":-1.381e-5,"MEAN_MOTION_DDOT":0},{"OBJECT_NAME":"KUIPER-00074","OBJECT_ID":"2025-151F","EPOCH":"2026-03-05T18:00:00.998784","MEAN_MOTION":15.01969423,"ECCENTRICITY":0.0001341,"INCLINATION":51.9034,"RA_OF_ASC_NODE":307.384,"ARG_OF_PERICENTER":15.1607,"MEAN_ANOMALY":116.6618,"EPHEMERIS_TYPE":0,"CLASSIFICATION_TYPE":"U","NORAD_CAT_ID":64821,"ELEMENT_SET_NO":999,"REV_AT_EPOCH":387,"BSTAR":0.006697,"MEAN_MOTION_DOT":0.00089548,"MEAN_MOTION_DDOT":0},{"OBJECT_NAME":"KUIPER-00075","OBJECT_ID":"2025-151G","EPOCH":"2026-03-05T16:37:01.892064","MEAN_MOTION":15.41656832,"ECCENTRICITY":0.0003764,"INCLINATION":51.8708,"RA_OF_ASC_NODE":241.2389,"ARG_OF_PERICENTER":262.8299,"MEAN_ANOMALY":97.2261,"EPHEMERIS_TYPE":0,"CLASSIFICATION_TYPE":"U","NORAD_CAT_ID":64822,"ELEMENT_SET_NO":999,"REV_AT_EPOCH":3578,"BSTAR":0.0010978,"MEAN_MOTION_DOT":0.0004691,"MEAN_MOTION_DDOT":0},{"OBJECT_NAME":"KUIPER-00076","OBJECT_ID":"2025-151H","EPOCH":"2026-03-05T02:23:36.119040","MEAN_MOTION":14.80471515,"ECCENTRICITY":6.248e-5,"INCLINATION":51.9005,"RA_OF_ASC_NODE":313.2943,"ARG_OF_PERICENTER":13.4813,"MEAN_ANOMALY":346.6166,"EPHEMERIS_TYPE":0,"CLASSIFICATION_TYPE":"U","NORAD_CAT_ID":64823,"ELEMENT_SET_NO":999,"REV_AT_EPOCH":3473,"BSTAR":0.00082306369,"MEAN_MOTION_DOT":6.139e-5,"MEAN_MOTION_DDOT":0},{"OBJECT_NAME":"KUIPER-00077","OBJECT_ID":"2025-151J","EPOCH":"2026-03-05T10:32:53.225088","MEAN_MOTION":14.80152795,"ECCENTRICITY":9.62e-5,"INCLINATION":51.9029,"RA_OF_ASC_NODE":316.8817,"ARG_OF_PERICENTER":189.4409,"MEAN_ANOMALY":170.6536,"EPHEMERIS_TYPE":0,"CLASSIFICATION_TYPE":"U","NORAD_CAT_ID":64824,"ELEMENT_SET_NO":999,"REV_AT_EPOCH":3471,"BSTAR":0.00081255,"MEAN_MOTION_DOT":6.011e-5,"MEAN_MOTION_DDOT":0},{"OBJECT_NAME":"KUIPER-00078","OBJECT_ID":"2025-151K","EPOCH":"2026-03-05T03:21:04.444992","MEAN_MOTION":14.79929921,"ECCENTRICITY":5.792e-5,"INCLINATION":51.9016,"RA_OF_ASC_NODE":315.7078,"ARG_OF_PERICENTER":63.8871,"MEAN_ANOMALY":296.2151,"EPHEMERIS_TYPE":0,"CLASSIFICATION_TYPE":"U","NORAD_CAT_ID":64825,"ELEMENT_SET_NO":999,"REV_AT_EPOCH":3470,"BSTAR":-4.1918698e-5,"MEAN_MOTION_DOT":-5.41e-6,"MEAN_MOTION_DDOT":0},{"OBJECT_NAME":"KUIPER-00079","OBJECT_ID":"2025-151L","EPOCH":"2026-03-05T05:38:57.466176","MEAN_MOTION":14.79955218,"ECCENTRICITY":6.87e-5,"INCLINATION":51.8989,"RA_OF_ASC_NODE":320.2612,"ARG_OF_PERICENTER":98.9194,"MEAN_ANOMALY":261.1846,"EPHEMERIS_TYPE":0,"CLASSIFICATION_TYPE":"U","NORAD_CAT_ID":64826,"ELEMENT_SET_NO":999,"REV_AT_EPOCH":3584,"BSTAR":0.00056385,"MEAN_MOTION_DOT":4.082e-5,"MEAN_MOTION_DDOT":0},{"OBJECT_NAME":"KUIPER-00080","OBJECT_ID":"2025-151M","EPOCH":"2026-03-05T17:48:29.630304","MEAN_MOTION":14.79924018,"ECCENTRICITY":6.73e-5,"INCLINATION":51.9005,"RA_OF_ASC_NODE":318.0277,"ARG_OF_PERICENTER":90.6104,"MEAN_ANOMALY":269.4935,"EPHEMERIS_TYPE":0,"CLASSIFICATION_TYPE":"U","NORAD_CAT_ID":64827,"ELEMENT_SET_NO":999,"REV_AT_EPOCH":3472,"BSTAR":8.1735e-5,"MEAN_MOTION_DOT":4.02e-6,"MEAN_MOTION_DDOT":0},{"OBJECT_NAME":"KUIPER-00082","OBJECT_ID":"2025-151N","EPOCH":"2026-03-05T01:06:48.134016","MEAN_MOTION":14.79929265,"ECCENTRICITY":7.696e-5,"INCLINATION":51.8981,"RA_OF_ASC_NODE":308.6344,"ARG_OF_PERICENTER":112.7581,"MEAN_ANOMALY":247.3463,"EPHEMERIS_TYPE":0,"CLASSIFICATION_TYPE":"U","NORAD_CAT_ID":64828,"ELEMENT_SET_NO":999,"REV_AT_EPOCH":3479,"BSTAR":0.00011072799,"MEAN_MOTION_DOT":6.23e-6,"MEAN_MOTION_DDOT":0},{"OBJECT_NAME":"KUIPER-00083","OBJECT_ID":"2025-151P","EPOCH":"2026-03-05T02:32:26.761920","MEAN_MOTION":14.79933736,"ECCENTRICITY":7.917e-5,"INCLINATION":51.9047,"RA_OF_ASC_NODE":315.8631,"ARG_OF_PERICENTER":107.8085,"MEAN_ANOMALY":252.2964,"EPHEMERIS_TYPE":0,"CLASSIFICATION_TYPE":"U","NORAD_CAT_ID":64829,"ELEMENT_SET_NO":999,"REV_AT_EPOCH":3588,"BSTAR":-5.2815505e-5,"MEAN_MOTION_DOT":-6.24e-6,"MEAN_MOTION_DDOT":0},{"OBJECT_NAME":"KUIPER-00084","OBJECT_ID":"2025-151Q","EPOCH":"2026-03-05T16:52:15.612672","MEAN_MOTION":14.79818673,"ECCENTRICITY":0.0001017,"INCLINATION":51.9009,"RA_OF_ASC_NODE":323.2054,"ARG_OF_PERICENTER":221.2814,"MEAN_ANOMALY":138.8071,"EPHEMERIS_TYPE":0,"CLASSIFICATION_TYPE":"U","NORAD_CAT_ID":64830,"ELEMENT_SET_NO":999,"REV_AT_EPOCH":3464,"BSTAR":-0.0055869,"MEAN_MOTION_DOT":-0.00042429,"MEAN_MOTION_DDOT":0}]
